{"type": "FeatureCollection", "features": [ {"type": "Feature", "properties": {"norad_id": 39019, "name": "PLEIADES 1B", "group": "resource", "lat": 69.82515447954518, "lon": 41.50935252978172, "alt_km": 690.2531269090678, "timestamp": "2025-12-17T23:38:06.519998+00:00", "meta": {"OBJECT_NAME": "PLEIADES 1B", "OBJECT_ID": "2012-068A", "EPOCH": "2025-12-17T15:04:35.090688", "MEAN_MOTION": 14.5855759, "ECCENTRICITY": 0.00011648, "INCLINATION": 98.1793, "RA_OF_ASC_NODE": 64.2028, "ARG_OF_PERICENTER": 84.8916, "MEAN_ANOMALY": 275.2416, "EPHEMERIS_TYPE": 0, "CLASSIFICATION_TYPE": "U", "NORAD_CAT_ID": 39019, "ELEMENT_SET_NO": 999, "REV_AT_EPOCH": 69438, "BSTAR": 7.6294491e-05, "MEAN_MOTION_DOT": 3.09e-06, "MEAN_MOTION_DDOT": 0}, "tle": {"line1": "1 39019U 12068A   25351.62818392  .00000309  00000+0  76294-4 0  9997", "line2": "2 39019  98.1793  64.2028 0001164  84.8916 275.2416 14.58557590694387"}}, "geometry": {"type": "Point", "coordinates": [41.50935252978172, 69.82515447954518]}}, {"type": "Feature", "properties": {"norad_id": 39030, "name": "GOKTURK 2", "group": "resource", "lat": -61.40184810039291, "lon": -0.968583897407398, "alt_km": 651.959236226633, "timestamp": "2025-12-17T23:38:06.520008+00:00", "meta": {"OBJECT_NAME": "GOKTURK 2", "OBJECT_ID": "2012-073A", "EPOCH": "2025-12-17T14:24:04.478976", "MEAN_MOTION": 14.75298315, "ECCENTRICITY": 0.00011335, "INCLINATION": 97.6893, "RA_OF_ASC_NODE": 193.0143, "ARG_OF_PERICENTER": 107.0733, "MEAN_ANOMALY": 253.0601, "EPHEMERIS_TYPE": 0, "CLASSIFICATION_TYPE": "U", "NORAD_CAT_ID": 39030, "ELEMENT_SET_NO": 999, "REV_AT_EPOCH": 69773, "BSTAR": 9.7921283e-05, "MEAN_MOTION_DOT": 6.16e-06, "MEAN_MOTION_DDOT": 0}, "tle": {"line1": "1 39030U 12073A   25351.60005184  .00000616  00000+0  97921-4 0  9992", "line2": "2 39030  97.6893 193.0143 0001133 107.0733 253.0601 14.75298315697733"}}, "geometry": {"type": "Point", "coordinates": [-0.968583897407398, -61.40184810039291]}}, {"type": "Feature", "properties": {"norad_id": 39084, "name": "LANDSAT 8", "group": "resource", "lat": -34.15727821609643, "lon": -125.6386839512682, "alt_km": 709.1156764184716, "timestamp": "2025-12-17T23:38:06.520018+00:00", "meta": {"OBJECT_NAME": "LANDSAT 8", "OBJECT_ID": "2013-008A", "EPOCH": "2025-12-17T14:24:49.393152", "MEAN_MOTION": 14.57118797, "ECCENTRICITY": 0.0001059, "INCLINATION": 98.2068, "RA_OF_ASC_NODE": 59.6023, "ARG_OF_PERICENTER": 91.5629, "MEAN_ANOMALY": 268.5691, "EPHEMERIS_TYPE": 0, "CLASSIFICATION_TYPE": "U", "NORAD_CAT_ID": 39084, "ELEMENT_SET_NO": 999, "REV_AT_EPOCH": 67145, "BSTAR": 8.6223808e-05, "MEAN_MOTION_DOT": 3.43e-06, "MEAN_MOTION_DDOT": 0}, "tle": {"line1": "1 39084U 13008A   25351.60057168  .00000343  00000+0  86224-4 0  9990", "line2": "2 39084  98.2068  59.6023 0001059  91.5629 268.5691 14.57118797671451"}}, "geometry": {"type": "Point", "coordinates": [-125.6386839512682, -34.15727821609643]}}, {"type": "Feature", "properties": {"norad_id": 39086, "name": "SARAL", "group": "resource", "lat": 76.11086106468642, "lon": 33.321153697204124, "alt_km": 773.2032588998272, "timestamp": "2025-12-17T23:38:06.520028+00:00", "meta": {"OBJECT_NAME": "SARAL", "OBJECT_ID": "2013-009A", "EPOCH": "2025-12-17T14:47:08.007360", "MEAN_MOTION": 14.32758697, "ECCENTRICITY": 0.00029371, "INCLINATION": 98.5502, "RA_OF_ASC_NODE": 175.4828, "ARG_OF_PERICENTER": 99.5958, "MEAN_ANOMALY": 260.5558, "EPHEMERIS_TYPE": 0, "CLASSIFICATION_TYPE": "U", "NORAD_CAT_ID": 39086, "ELEMENT_SET_NO": 999, "REV_AT_EPOCH": 66960, "BSTAR": 5.2144243e-05, "MEAN_MOTION_DOT": 9.8e-07, "MEAN_MOTION_DDOT": 0}, "tle": {"line1": "1 39086U 13009A   25351.61606490  .00000098  00000+0  52144-4 0  9993", "line2": "2 39086  98.5502 175.4828 0002937  99.5958 260.5558 14.32758697669608"}}, "geometry": {"type": "Point", "coordinates": [33.321153697204124, 76.11086106468642]}}, {"type": "Feature", "properties": {"norad_id": 39150, "name": "GAOFEN-1", "group": "resource", "lat": -16.18511248868751, "lon": 64.87091130371678, "alt_km": 655.4335038901463, "timestamp": "2025-12-17T23:38:06.520038+00:00", "meta": {"OBJECT_NAME": "GAOFEN-1", "OBJECT_ID": "2013-018A", "EPOCH": "2025-12-17T15:34:37.791264", "MEAN_MOTION": 14.76544264, "ECCENTRICITY": 0.00184216, "INCLINATION": 97.9326, "RA_OF_ASC_NODE": 62.2217, "ARG_OF_PERICENTER": 127.8925, "MEAN_ANOMALY": 232.3954, "EPHEMERIS_TYPE": 0, "CLASSIFICATION_TYPE": "U", "NORAD_CAT_ID": 39150, "ELEMENT_SET_NO": 999, "REV_AT_EPOCH": 68145, "BSTAR": 0.00013421853, "MEAN_MOTION_DOT": 8.87e-06, "MEAN_MOTION_DDOT": 0}, "tle": {"line1": "1 39150U 13018A   25351.64904851  .00000887  00000+0  13422-3 0  9991", "line2": "2 39150  97.9326  62.2217 0018421 127.8925 232.3954 14.76544264681451"}}, "geometry": {"type": "Point", "coordinates": [64.87091130371678, -16.18511248868751]}}, {"type": "Feature", "properties": {"norad_id": 39160, "name": "VNREDSAT 1", "group": "resource", "lat": -7.5028688119574225, "lon": -133.976743937696, "alt_km": 681.5212475563412, "timestamp": "2025-12-17T23:38:06.520048+00:00", "meta": {"OBJECT_NAME": "VNREDSAT 1", "OBJECT_ID": "2013-021B", "EPOCH": "2025-12-17T14:35:08.855232", "MEAN_MOTION": 14.64930627, "ECCENTRICITY": 0.00012256, "INCLINATION": 97.9374, "RA_OF_ASC_NODE": 46.7123, "ARG_OF_PERICENTER": 78.2622, "MEAN_ANOMALY": 281.8719, "EPHEMERIS_TYPE": 0, "CLASSIFICATION_TYPE": "U", "NORAD_CAT_ID": 39160, "ELEMENT_SET_NO": 999, "REV_AT_EPOCH": 67370, "BSTAR": 0.00012175236, "MEAN_MOTION_DOT": 6.06e-06, "MEAN_MOTION_DDOT": 0}, "tle": {"line1": "1 39160U 13021B   25351.60774138  .00000606  00000+0  12175-3 0  9998", "line2": "2 39160  97.9374  46.7123 0001225  78.2622 281.8719 14.64930627673701"}}, "geometry": {"type": "Point", "coordinates": [-133.976743937696, -7.5028688119574225]}}, {"type": "Feature", "properties": {"norad_id": 39227, "name": "ARIRANG-5 (KOMPSAT-5)", "group": "resource", "lat": -66.69730655861464, "lon": -165.69149770851564, "alt_km": 560.9773811644609, "timestamp": "2025-12-17T23:38:06.520058+00:00", "meta": {"OBJECT_NAME": "ARIRANG-5 (KOMPSAT-5)", "OBJECT_ID": "2013-042A", "EPOCH": "2025-12-17T14:21:33.895008", "MEAN_MOTION": 15.0452699, "ECCENTRICITY": 0.00034342, "INCLINATION": 97.6148, "RA_OF_ASC_NODE": 175.8322, "ARG_OF_PERICENTER": 42.1686, "MEAN_ANOMALY": 317.9804, "EPHEMERIS_TYPE": 0, "CLASSIFICATION_TYPE": "U", "NORAD_CAT_ID": 39227, "ELEMENT_SET_NO": 999, "REV_AT_EPOCH": 67655, "BSTAR": 0.00017218716, "MEAN_MOTION_DOT": 2.352e-05, "MEAN_MOTION_DDOT": 0}, "tle": {"line1": "1 39227U 13042A   25351.59830897  .00002352  00000+0  17219-3 0  9992", "line2": "2 39227  97.6148 175.8322 0003434  42.1686 317.9804 15.04526990676551"}}, "geometry": {"type": "Point", "coordinates": [-165.69149770851564, -66.69730655861464]}}, {"type": "Feature", "properties": {"norad_id": 39418, "name": "SKYSAT-A", "group": "resource", "lat": 76.73388633587653, "lon": 8.52616285783864, "alt_km": 534.8858538072209, "timestamp": "2025-12-17T23:38:06.520068+00:00", "meta": {"OBJECT_NAME": "SKYSAT-A", "OBJECT_ID": "2013-066C", "EPOCH": "2025-12-17T15:20:32.258400", "MEAN_MOTION": 15.11638516, "ECCENTRICITY": 0.00210408, "INCLINATION": 97.4106, "RA_OF_ASC_NODE": 41.6992, "ARG_OF_PERICENTER": 218.8644, "MEAN_ANOMALY": 141.1075, "EPHEMERIS_TYPE": 0, "CLASSIFICATION_TYPE": "U", "NORAD_CAT_ID": 39418, "ELEMENT_SET_NO": 999, "REV_AT_EPOCH": 66104, "BSTAR": 0.00017905929, "MEAN_MOTION_DOT": 2.995e-05, "MEAN_MOTION_DDOT": 0}, "tle": {"line1": "1 39418U 13066C   25351.63926225  .00002995  00000+0  17906-3 0  9992", "line2": "2 39418  97.4106  41.6992 0021040 218.8644 141.1075 15.11638516661048"}}, "geometry": {"type": "Point", "coordinates": [8.52616285783864, 76.73388633587653]}}, {"type": "Feature", "properties": {"norad_id": 39419, "name": "DUBAISAT-2", "group": "resource", "lat": 19.586461314906803, "lon": 164.89715177130142, "alt_km": 546.8017144018577, "timestamp": "2025-12-17T23:38:06.520078+00:00", "meta": {"OBJECT_NAME": "DUBAISAT-2", "OBJECT_ID": "2013-066D", "EPOCH": "2025-12-17T13:22:27.302880", "MEAN_MOTION": 15.08404295, "ECCENTRICITY": 0.0010078, "INCLINATION": 97.4442, "RA_OF_ASC_NODE": 341.8162, "ARG_OF_PERICENTER": 304.0406, "MEAN_ANOMALY": 55.9865, "EPHEMERIS_TYPE": 0, "CLASSIFICATION_TYPE": "U", "NORAD_CAT_ID": 39419, "ELEMENT_SET_NO": 999, "REV_AT_EPOCH": 65899, "BSTAR": 0.00022482527, "MEAN_MOTION_DOT": 3.439e-05, "MEAN_MOTION_DDOT": 0}, "tle": {"line1": "1 39419U 13066D   25351.55726045  .00003439  00000+0  22483-3 0  9992", "line2": "2 39419  97.4442 341.8162 0010078 304.0406  55.9865 15.08404295658999"}}, "geometry": {"type": "Point", "coordinates": [164.89715177130142, 19.586461314906803]}}, {"type": "Feature", "properties": {"norad_id": 39574, "name": "GPM-CORE", "group": "resource", "lat": -64.68514804972297, "lon": 114.09032266639407, "alt_km": 433.12699341540247, "timestamp": "2025-12-17T23:38:06.520088+00:00", "meta": {"OBJECT_NAME": "GPM-CORE", "OBJECT_ID": "2014-009C", "EPOCH": "2025-12-17T14:41:00.612960", "MEAN_MOTION": 15.44538913, "ECCENTRICITY": 0.00095402, "INCLINATION": 64.9724, "RA_OF_ASC_NODE": 196.3663, "ARG_OF_PERICENTER": 246.9729, "MEAN_ANOMALY": 113.0405, "EPHEMERIS_TYPE": 0, "CLASSIFICATION_TYPE": "U", "NORAD_CAT_ID": 39574, "ELEMENT_SET_NO": 999, "REV_AT_EPOCH": 66976, "BSTAR": 0.00014229037, "MEAN_MOTION_DOT": 6.399e-05, "MEAN_MOTION_DDOT": 0}, "tle": {"line1": "1 39574U 14009C   25351.61181265  .00006399  00000+0  14229-3 0  9995", "line2": "2 39574  64.9724 196.3663 0009540 246.9729 113.0405 15.44538913669764"}}, "geometry": {"type": "Point", "coordinates": [114.09032266639407, -64.68514804972297]}}]}